{
  "type": "FeatureCollection",
  "features": [
    {
      "type": "Feature",
      "properties": {
        "norad_id": 66400,
        "name": "STARLINK-35667",
        "group": "last-30-days",
        "lat": -3.313381987024008,
        "lon": 126.10115595863529,
        "alt_km": 419.71827554963056,
        "timestamp": "2025-12-04T09:47:36.301291+00:00",
        "meta_object_name": "STARLINK-35667",
        "meta_object_id": "2025-257W",
        "meta_epoch": "2025-12-03T17:31:16.778784",
        "meta_mean_motion": 15.49345077,
        "meta_eccentricity": 0.0001403,
        "meta_inclination": 53.1593,
        "meta_ra_of_asc_node": 306.8566,
        "meta_arg_of_pericenter": 93.2804,
        "meta_mean_anomaly": 266.8366,
        "meta_ephemeris_type": 0,
        "meta_classification_type": "U",
        "meta_norad_cat_id": 66400,
        "meta_element_set_no": 999,
        "meta_rev_at_epoch": 498,
        "meta_bstar": 0.0010260066,
        "meta_mean_motion_dot": 0.00057105,
        "meta_mean_motion_ddot": 0,
        "tle_line1": "1 66400U 25257W   25337.73005531  .00057105  00000+0  10260-2 0  9999",
        "tle_line2": "2 66400  53.1593 306.8566 0001403  93.2804 266.8366 15.49345077  4985"
      },
      "geometry": {
        "type": "Point",
        "coordinates": [
          126.10115595863529,
          -3.313381987024008
        ]
      }
    },
    {
      "type": "Feature",
      "properties": {
        "norad_id": 66401,
        "name": "STARLINK-35668",
        "group": "last-30-days",
        "lat": -4.906032094575171,
        "lon": 127.29952387659246,
        "alt_km": 419.8033615495815,
        "timestamp": "2025-12-04T09:47:36.301304+00:00",
        "meta_object_name": "STARLINK-35668",
        "meta_object_id": "2025-257X",
        "meta_epoch": "2025-12-03T17:30:47.201472",
        "meta_mean_motion": 15.49352848,
        "meta_eccentricity": 9.764e-05,
        "meta_inclination": 53.1592,
        "meta_ra_of_asc_node": 306.8547,
        "meta_arg_of_pericenter": 87.9557,
        "meta_mean_anomaly": 272.1564,
        "meta_ephemeris_type": 0,
        "meta_classification_type": "U",
        "meta_norad_cat_id": 66401,
        "meta_element_set_no": 999,
        "meta_rev_at_epoch": 498,
        "meta_bstar": 0.001822713,
        "meta_mean_motion_dot": 0.0010242,
        "meta_mean_motion_ddot": 0,
        "tle_line1": "1 66401U 25257X   25337.72971298  .00102420  00000+0  18227-2 0  9993",
        "tle_line2": "2 66401  53.1592 306.8547 0000976  87.9557 272.1564 15.49352848  4987"
      },
      "geometry": {
        "type": "Point",
        "coordinates": [
          127.29952387659246,
          -4.906032094575171
        ]
      }
    },
    {
      "type": "Feature",
      "properties": {
        "norad_id": 66402,
        "name": "STARLINK-35644",
        "group": "last-30-days",
        "lat": -1.951971644115502,
        "lon": 125.0815596101342,
        "alt_km": 418.9081152359422,
        "timestamp": "2025-12-04T09:47:36.301314+00:00",
        "meta_object_name": "STARLINK-35644",
        "meta_object_id": "2025-257Y",
        "meta_epoch": "2025-12-03T19:04:39.957888",
        "meta_mean_motion": 15.49387406,
        "meta_eccentricity": 0.00011561,
        "meta_inclination": 53.1592,
        "meta_ra_of_asc_node": 306.5508,
        "meta_arg_of_pericenter": 101.7067,
        "meta_mean_anomaly": 258.4072,
        "meta_ephemeris_type": 0,
        "meta_classification_type": "U",
        "meta_norad_cat_id": 66402,
        "meta_element_set_no": 999,
        "meta_rev_at_epoch": 499,
        "meta_bstar": 0.0030345753,
        "meta_mean_motion_dot": 0.00172578,
        "meta_mean_motion_ddot": 0,
        "tle_line1": "1 66402U 25257Y   25337.79490692  .00172578  00000+0  30346-2 0  9992",
        "tle_line2": "2 66402  53.1592 306.5508 0001156 101.7067 258.4072 15.49387406  4994"
      },
      "geometry": {
        "type": "Point",
        "coordinates": [
          125.0815596101342,
          -1.951971644115502
        ]
      }
    },
    {
      "type": "Feature",
      "properties": {
        "norad_id": 66403,
        "name": "STARLINK-35602",
        "group": "last-30-days",
        "lat": -6.400300879429413,
        "lon": 128.4300117691674,
        "alt_km": 420.15998132346886,
        "timestamp": "2025-12-04T09:47:36.301324+00:00",
        "meta_object_name": "STARLINK-35602",
        "meta_object_id": "2025-257Z",
        "meta_epoch": "2025-12-03T17:30:17.363232",
        "meta_mean_motion": 15.49351127,
        "meta_eccentricity": 0.0001458,
        "meta_inclination": 53.1592,
        "meta_ra_of_asc_node": 306.8522,
        "meta_arg_of_pericenter": 90.2781,
        "meta_mean_anomaly": 269.8395,
        "meta_ephemeris_type": 0,
        "meta_classification_type": "U",
        "meta_norad_cat_id": 66403,
        "meta_element_set_no": 999,
        "meta_rev_at_epoch": 498,
        "meta_bstar": 0.0011603431,
        "meta_mean_motion_dot": 0.00064718,
        "meta_mean_motion_ddot": 0,
        "tle_line1": "1 66403U 25257Z   25337.72936763  .00064718  00000+0  11603-2 0  9991",
        "tle_line2": "2 66403  53.1592 306.8522 0001458  90.2781 269.8395 15.49351127  4988"
      },
      "geometry": {
        "type": "Point",
        "coordinates": [
          128.4300117691674,
          -6.400300879429413
        ]
      }
    },
    {
      "type": "Feature",
      "properties": {
        "norad_id": 66404,
        "name": "STARLINK-35691",
        "group": "last-30-days",
        "lat": -7.968686967234046,
        "lon": 129.62542168402604,
        "alt_km": 420.2617391743297,
        "timestamp": "2025-12-04T09:47:36.301335+00:00",
        "meta_object_name": "STARLINK-35691",
        "meta_object_id": "2025-257AA",
        "meta_epoch": "2025-12-03T17:29:47.621760",
        "meta_mean_motion": 15.49360237,
        "meta_eccentricity": 0.00013236,
        "meta_inclination": 53.1591,
        "meta_ra_of_asc_node": 306.8493,
        "meta_arg_of_pericenter": 90.5798,
        "meta_mean_anomaly": 269.5363,
        "meta_ephemeris_type": 0,
        "meta_classification_type": "U",
        "meta_norad_cat_id": 66404,
        "meta_element_set_no": 999,
        "meta_rev_at_epoch": 498,
        "meta_bstar": 0.0014717884,
        "meta_mean_motion_dot": 0.00082424,
        "meta_mean_motion_ddot": 0,
        "tle_line1": "1 66404U 25257AA  25337.72902340  .00082424  00000+0  14718-2 0  9990",
        "tle_line2": "2 66404  53.1591 306.8493 0001323  90.5798 269.5363 15.49360237  4981"
      },
      "geometry": {
        "type": "Point",
        "coordinates": [
          129.62542168402604,
          -7.968686967234046
        ]
      }
    },
    {
      "type": "Feature",
      "properties": {
        "norad_id": 66405,
        "name": "STARLINK-35683",
        "group": "last-30-days",
        "lat": -9.472257643305348,
        "lon": 130.7829459421956,
        "alt_km": 420.42166876586816,
        "timestamp": "2025-12-04T09:47:36.301345+00:00",
        "meta_object_name": "STARLINK-35683",
        "meta_object_id": "2025-257AB",
        "meta_epoch": "2025-12-03T17:29:18.119616",
        "meta_mean_motion": 15.49351189,
        "meta_eccentricity": 0.00011725,
        "meta_inclination": 53.159,
        "meta_ra_of_asc_node": 306.8468,
        "meta_arg_of_pericenter": 91.9388,
        "meta_mean_anomaly": 268.1755,
        "meta_ephemeris_type": 0,
        "meta_classification_type": "U",
        "meta_norad_cat_id": 66405,
        "meta_element_set_no": 999,
        "meta_rev_at_epoch": 491,
        "meta_bstar": 0.0016024406,
        "meta_mean_motion_dot": 0.00089837,
        "meta_mean_motion_ddot": 0,
        "tle_line1": "1 66405U 25257AB  25337.72868194  .00089837  00000+0  16024-2 0  9996",
        "tle_line2": "2 66405  53.1590 306.8468 0001172  91.9388 268.1755 15.49351189  4914"
      },
      "geometry": {
        "type": "Point",
        "coordinates": [
          130.7829459421956,
          -9.472257643305348
        ]
      }
    },
    {
      "type": "Feature",
      "properties": {
        "norad_id": 66406,
        "name": "STARLINK-34840",
        "group": "last-30-days",
        "lat": -13.9588882625495,
        "lon": 134.32583870877215,
        "alt_km": 421.31294556974626,
        "timestamp": "2025-12-04T09:47:36.301359+00:00",
        "meta_object_name": "STARLINK-34840",
        "meta_object_id": "2025-257AC",
        "meta_epoch": "2025-12-03T22:06:29.577024",
        "meta_mean_motion": 15.49344183,
        "meta_eccentricity": 0.00013685,
        "meta_inclination": 53.1588,
        "meta_ra_of_asc_node": 305.9143,
        "meta_arg_of_pericenter": 70.7534,
        "meta_mean_anomaly": 289.3623,
        "meta_ephemeris_type": 0,
        "meta_classification_type": "U",
        "meta_norad_cat_id": 66406,
        "meta_element_set_no": 999,
        "meta_rev_at_epoch": 495,
        "meta_bstar": 0.0024309264,
        "meta_mean_motion_dot": 0.00137322,
        "meta_mean_motion_ddot": 0,
        "tle_line1": "1 66406U 25257AC  25337.92117566  .00137322  00000+0  24309-2 0  9997",
        "tle_line2": "2 66406  53.1588 305.9143 0001368  70.7534 289.3623 15.49344183  4956"
      },
      "geometry": {
        "type": "Point",
        "coordinates": [
          134.32583870877215,
          -13.9588882625495
        ]
      }
    }
  ]
}